0 SL-12 DEB
1 29328U 89039AK  13272.77874924  .00000107  00000-0  12370-2 0  2071
2 29328 065.0589 042.8453 5587474 316.5383 052.7828 04.28113340112017
0 SL-12 DEB
1 29328U 89039AK  13280.46748458  .00000083  00000-0  84265-3 0  2085
2 29328 065.0723 040.1161 5585902 316.1905 022.7285 04.28112860112340
0 SL-12 DEB
1 29328U 89039AK  13281.63844995  .00000108  00000-0  10706-2 0  2095
2 29328 065.0818 039.7031 5586872 316.0901 027.4453 04.28113435112390
0 SL-12 DEB
1 29328U 89039AK  13286.53313315 -.00003536  00000-0 -30348-1 0  2101
2 29328 065.0879 037.9373 5586434 315.8739 011.1887 04.28096949112601
